NORAD_CAT_ID,OBJECT_NAME,OBJECT_TYPE,EPOCH,MEAN_MOTION,ECCENTRICITY,INCLINATION,RA_OF_ASC_NODE,ARG_OF_PERICENTER,MEAN_ANOMALY,BSTAR,MEAN_MOTION_DOT,MEAN_MOTION_DDOT,TLE_LINE0,TLE_LINE1,TLE_LINE2,SEMIMAJOR_AXIS,PERIOD,APOGEE,PERIGEE,DECAYED
53265.0,STARLINK-4097,PAYLOAD,2023-09-02 01:07:57,15.088406,0.0001033,53.2179,2.557,86.3829,273.7281,7.7468e-05,9.45e-06,0.0,0 STARLINK-4097,1 53265U 22086Z   23245.04719154  .00000945  00000-0  77468-4 0  9990,2 53265  53.2179   2.5570 0001033  86.3829 273.7281 15.08840600 62057,6917.879,95.438,540.458,539.029,0.0
53265.0,STARLINK-4097,PAYLOAD,2023-09-02 12:15:39,15.08838855,0.0001402,53.2186,0.4746,89.6623,270.453,0.00012931,1.771e-05,0.0,0 STARLINK-4097,1 53265U 22086Z   23245.51087356  .00001771  00000-0  12931-3 0  9995,2 53265  53.2186   0.4746 0001402  89.6623 270.4530 15.08838855 62303,6917.884,95.438,540.719,538.779,0.0
53265.0,STARLINK-4097,PAYLOAD,2023-09-02 15:26:24,15.08852485,0.0001486,53.2185,359.881,75.6752,284.4405,0.00015296,2.148e-05,0.0,0 STARLINK-4097,1 53265U 22086Z   23245.64334465  .00002148  00000-0  15296-3 0  9991,2 53265  53.2185 359.8810 0001486  75.6752 284.4405 15.08852485 62148,6917.842,95.437,540.735,538.679,0.0
53265.0,STARLINK-4097,PAYLOAD,2023-09-03 00:58:43,15.08846205,0.0001388,53.2172,358.0989,83.4445,276.6705,0.00012914,1.768e-05,0.0,0 STARLINK-4097,1 53265U 22086Z   23246.04078658  .00001768  00000-0  12914-3 0  9996,2 53265  53.2172 358.0989 0001388  83.4445 276.6705 15.08846205 62205,6917.861,95.437,540.687,538.766,0.0
53265.0,STARLINK-4097,PAYLOAD,2023-09-03 13:41:49,15.08845342,0.0001552,53.2179,355.7164,90.7569,269.3601,0.00011399,1.527e-05,0.0,0 STARLINK-4097,1 53265U 22086Z   23246.57070689  .00001527  00000-0  11399-3 0  9999,2 53265  53.2179 355.7164 0001552  90.7569 269.3601 15.08845342 62465,6917.864,95.437,540.803,538.655,0.0
53265.0,STARLINK-4097,PAYLOAD,2023-09-04 00:49:31,15.08841539,0.0001316,53.2182,353.6336,94.2264,265.8879,3.9306e-05,3.38e-06,0.0,0 STARLINK-4097,1 53265U 22086Z   23247.03438978  .00000338  00000-0  39306-4 0  9998,2 53265  53.2182 353.6336 0001316  94.2264 265.8879 15.08841539 62356,6917.876,95.437,540.651,538.83,0.0
53265.0,STARLINK-4097,PAYLOAD,2023-09-04 13:32:37,15.08829626,0.0001553,53.2175,351.2559,88.464,271.653,-8.3394e-05,-1.615e-05,0.0,0 STARLINK-4097,1 53265U 22086Z   23247.56432345 -.00001615  00000-0 -83394-4 0  9995,2 53265  53.2175 351.2559 0001553  88.4640 271.6530 15.08829626 62616,6917.912,95.438,540.851,538.703,0.0
53265.0,STARLINK-4097,PAYLOAD,2023-09-04 16:43:23,15.08835665,0.0001451,53.218,350.6621,80.5472,279.5684,-0.00010706,-1.991e-05,0.0,0 STARLINK-4097,1 53265U 22086Z   23247.69679990 -.00001991  00000-0 -10706-3 0  9991,2 53265  53.2180 350.6621 0001451  80.5472 279.5684 15.08835665 62457,6917.894,95.438,540.762,538.755,0.0
53265.0,STARLINK-4097,PAYLOAD,2023-09-05 10:12:37,15.08841867,0.0001323,53.2179,347.3917,85.2816,274.8327,5.585e-05,6.01e-06,0.0,0 STARLINK-4097,1 53265U 22086Z   23248.42543205  .00000601  00000-0  55850-4 0  9997,2 53265  53.2179 347.3917 0001323  85.2816 274.8327 15.08841867 62563,6917.875,95.437,540.655,538.824,0.0
53265.0,STARLINK-4097,PAYLOAD,2023-09-06 10:03:24,15.08833772,0.0001373,53.2181,342.9312,78.4268,281.6878,0.00019452,2.809e-05,0.0,0 STARLINK-4097,1 53265U 22086Z   23249.41903591  .00002809  00000-0  19452-3 0  9994,2 53265  53.2181 342.9312 0001373  78.4268 281.6878 15.08833772 62716,6917.899,95.438,540.714,538.815,0.0
53265.0,STARLINK-4097,PAYLOAD,2023-09-07 08:18:49,15.08833754,0.0001363,53.2179,338.7689,79.0495,281.065,4.4479e-05,4.2e-06,0.0,0 STARLINK-4097,1 53265U 22086Z   23250.34640211  .00000420  00000-0  44479-4 0  9990,2 53265  53.2179 338.7689 0001363  79.0495 281.0650 15.08833754 62858,6917.899,95.438,540.707,538.822,0.0
53265.0,STARLINK-4097,PAYLOAD,2023-09-07 09:54:12,15.08838539,0.00013,53.218,338.4715,82.07,278.044,1.355e-05,-7.2e-07,0.0,0 STARLINK-4097,1 53265U 22086Z   23250.41263921 -.00000072  00000-0  13550-4 0  9997,2 53265  53.2180 338.4715 0001300  82.0700 278.0440 15.08838539 63042,6917.885,95.438,540.649,538.851,0.0
53265.0,STARLINK-4097,PAYLOAD,2023-09-07 22:37:16,15.08842789,0.0001228,53.2169,336.0936,101.1114,259.0016,-8.9558e-06,-4.3e-06,0.0,0 STARLINK-4097,1 53265U 22086Z   23250.94255602 -.00000430  00000-0 -89558-5 0  9993,2 53265  53.2169 336.0936 0001228 101.1114 259.0016 15.08842789 62947,6917.872,95.437,540.586,538.887,0.0
53265.0,STARLINK-4097,PAYLOAD,2023-09-08 09:44:59,15.08836714,0.0001353,53.2174,334.0112,89.067,271.0477,-4.3596e-06,-3.57e-06,0.0,0 STARLINK-4097,1 53265U 22086Z   23251.40624153 -.00000357  00000-0 -43596-5 0  9996,2 53265  53.2174 334.0112 0001353  89.0670 271.0477 15.08836714 63012,6917.89,95.438,540.691,538.819,0.0
53265.0,STARLINK-4097,PAYLOAD,2023-09-08 12:55:45,15.08840673,0.0001032,53.2174,333.4183,91.4582,268.6528,5.9475e-05,6.59e-06,0.0,0 STARLINK-4097,1 53265U 22086Z   23251.53871644  .00000659  00000-0  59475-4 0  9994,2 53265  53.2174 333.4183 0001032  91.4582 268.6528 15.08840673 63216,6917.878,95.438,540.457,539.029,0.0
53265.0,STARLINK-4097,PAYLOAD,2023-09-08 14:31:08,15.08841646,0.0001286,53.2176,333.1193,88.9224,271.1916,6.0938e-05,6.82e-06,0.0,0 STARLINK-4097,1 53265U 22086Z   23251.60495644  .00000682  00000-0  60938-4 0  9996,2 53265  53.2176 333.1193 0001286  88.9224 271.1916 15.08841646 63043,6917.875,95.437,540.63,538.851,0.0
53265.0,STARLINK-4097,PAYLOAD,2023-09-08 22:28:04,15.08818113,0.0001294,53.2177,331.6321,89.9595,270.1545,0.00027059,4.019e-05,0.0,0 STARLINK-4097,1 53265U 22086Z   23251.93616264  .00004019  00000-0  27059-3 0  9999,2 53265  53.2177 331.6321 0001294  89.9595 270.1545 15.08818113 63096,6917.947,95.439,540.707,538.917,0.0
53265.0,STARLINK-4097,PAYLOAD,2023-09-09 12:46:32,15.08845003,0.0001296,53.2181,328.9549,88.9247,271.1894,4.2147e-05,3.83e-06,0.0,0 STARLINK-4097,1 53265U 22086Z   23252.53231657  .00000383  00000-0  42147-4 0  9991,2 53265  53.2181 328.9549 0001296  88.9247 271.1894 15.08845003 63363,6917.865,95.437,540.627,538.834,0.0
53265.0,STARLINK-4097,PAYLOAD,2023-09-09 23:54:13,15.08910614,0.0001961,53.2178,326.8748,76.0305,284.0905,-0.00085309,-0.00013866,0.0,0 STARLINK-4097,1 53265U 22086Z   23252.99599100 -.00013866  00000-0 -85309-3 0  9999,2 53265  53.2178 326.8748 0001961  76.0305 284.0905 15.08910614 63254,6917.665,95.433,540.886,538.173,0.0
53265.0,STARLINK-4097,PAYLOAD,2023-09-10 11:01:56,15.08844539,0.0001332,53.2176,324.7934,89.2224,270.8921,4.0623e-05,3.59e-06,0.0,0 STARLINK-4097,1 53265U 22086Z   23253.45967760  .00000359  00000-0  40623-4 0  9994,2 53265  53.2176 324.7934 0001332  89.2224 270.8921 15.08844539 63325,6917.867,95.437,540.653,538.81,0.0
53265.0,STARLINK-4097,PAYLOAD,2023-09-10 12:37:19,15.08845438,0.0001285,53.2175,324.496,95.1241,264.9898,7.9273e-05,9.74e-06,0.0,0 STARLINK-4097,1 53265U 22086Z   23253.52591543  .00000974  00000-0  79273-4 0  9990,2 53265  53.2175 324.4960 0001285  95.1241 264.9898 15.08845438 63519,6917.864,95.437,540.618,538.84,0.0
53265.0,STARLINK-4097,PAYLOAD,2023-09-10 23:45:01,15.08837559,0.0001411,53.2174,322.415,82.097,278.0182,2.7697e-05,1.53e-06,0.0,0 STARLINK-4097,1 53265U 22086Z   23253.98960259  .00000153  00000-0  27697-4 0  9996,2 53265  53.2174 322.4150 0001411  82.0970 278.0182 15.08837559 63407,6917.888,95.438,540.729,538.777,0.0
53265.0,STARLINK-4097,PAYLOAD,2023-09-11 10:52:43,15.08838344,0.0001385,53.2174,320.3326,84.517,275.598,-1.6315e-05,-5.48e-06,0.0,0 STARLINK-4097,1 53265U 22086Z   23254.45328459 -.00000548  00000-0 -16315-4 0  9994,2 53265  53.2174 320.3326 0001385  84.5170 275.5980 15.08838344 63656,6917.885,95.438,540.709,538.792,0.0
53265.0,STARLINK-4097,PAYLOAD,2023-09-12 10:43:29,15.08847044,0.0001403,53.2173,315.8721,85.1224,274.9928,9.8292e-05,1.277e-05,0.0,0 STARLINK-4097,1 53265U 22086Z   23255.44687446  .00001277  00000-0  98292-4 0  9990,2 53265  53.2173 315.8721 0001403  85.1224 274.9928 15.08847044 63620,6917.859,95.437,540.694,538.753,0.0
53265.0,STARLINK-4097,PAYLOAD,2023-09-12 13:54:16,15.08837286,0.0001427,53.2172,315.2771,83.4738,276.6416,0.00027783,4.136e-05,0.0,0 STARLINK-4097,1 53265U 22086Z   23255.57935583  .00004136  00000-0  27783-3 0  9995,2 53265  53.2172 315.2771 0001427  83.4738 276.6416 15.08837286 63825,6917.889,95.438,540.741,538.767,0.0
53265.0,STARLINK-4097,PAYLOAD,2023-09-13 10:34:16,15.08843532,0.0001657,53.2176,311.4113,110.1813,249.9358,0.00010482,1.381e-05,0.0,0 STARLINK-4097,1 53265U 22086Z   23256.44047374  .00001381  00000-0  10482-3 0  9991,2 53265  53.2176 311.4113 0001657 110.1813 249.9358 15.08843532 63777,6917.87,95.437,540.881,538.588,0.0
53265.0,STARLINK-4097,PAYLOAD,2023-09-13 23:17:23,15.08824016,0.0002253,53.2184,309.03,141.3074,218.808,4.1811e-05,3.77e-06,0.0,0 STARLINK-4097,1 53265U 22086Z   23256.97040589  .00000377  00000-0  41811-4 0  9995,2 53265  53.2184 309.0300 0002253 141.3074 218.8080 15.08824016 63857,6917.929,95.439,541.353,538.236,0.0
53265.0,STARLINK-4097,PAYLOAD,2023-09-14 08:49:43,15.08820406,0.0001487,53.2169,307.249,90.1631,269.9532,-0.00015013,-2.675e-05,0.0,0 STARLINK-4097,1 53265U 22086Z   23257.36786213 -.00002675  00000-0 -15013-3 0  9999,2 53265  53.2169 307.2490 0001487  90.1631 269.9532 15.08820406 63913,6917.94,95.439,540.834,538.777,0.0
53265.0,STARLINK-4097,PAYLOAD,2023-09-14 19:57:24,15.08830155,0.0001401,53.2179,305.1653,94.7623,265.3529,-0.00010893,-2.021e-05,0.0,0 STARLINK-4097,1 53265U 22086Z   23257.83153783 -.00002021  00000-0 -10893-3 0  9997,2 53265  53.2179 305.1653 0001401  94.7623 265.3529 15.08830155 64165,6917.91,95.438,540.745,538.806,0.0
53265.0,STARLINK-4097,PAYLOAD,2023-09-15 02:18:57,15.08827079,0.0001219,53.2169,303.9754,103.8803,256.2325,-1.996e-05,-6.05e-06,0.0,0 STARLINK-4097,1 53265U 22086Z   23258.09649946 -.00000605  00000-0 -19960-4 0  9998,2 53265  53.2169 303.9754 0001219 103.8803 256.2325 15.08827079 64020,6917.92,95.438,540.628,538.942,0.0
